start=new Date('2023-03-14T00:00:00.000Z').valueOf();
sats=[{"LAUNCH_DATE":"2022-09-05","OBJECT_TYPE":"PAYLOAD","PERIOD":"95.436","OBJECT_NAME":"STARLINK-4670","RCS_SIZE":"LARGE","COUNTRY_CODE":"US","APOAPSIS":"540.468","ECCENTRICITY":"0.00011820","REV_AT_EPOCH":"2973","TIME_SYSTEM":"UTC","OBJECT_ID":"2022-107AW","DECAY_DATE":null,"FILE":"3859631","INCLINATION":"53.2157","ARG_OF_PERICENTER":"91.7831","RA_OF_ASC_NODE":"126.4276","MEAN_ELEMENT_THEORY":"SGP4","CENTER_NAME":"EARTH","MEAN_ANOMALY":"268.3297","SEMIMAJOR_AXIS":"6917.785","REF_FRAME":"TEME","SITE":"AFETR","EPHEMERIS_TYPE":"0","ELEMENT_SET_NO":"999","MEAN_MOTION_DOT":"0.00032780","EPOCH":"2023-03-13T15:42:41.213088","CLASSIFICATION_TYPE":"U","MEAN_MOTION_DDOT":"0.0000000000000","TLE_LINE2":"2 53744  53.2157 126.4276 0001182  91.7831 268.3297 15.08871220 29739","MEAN_MOTION":"15.08871220","TLE_LINE1":"1 53744U 22107AW  23072.65464367  .00032780  00000-0  20664-2 0  9990","PERIAPSIS":"538.832","NORAD_CAT_ID":"53744","BSTAR":"0.00206640000000","GP_ID":"228035973"},{"BSTAR":"0.00187460000000","GP_ID":"228036725","NORAD_CAT_ID":"53745","PERIAPSIS":"538.810","TLE_LINE1":"1 53745U 22107AX  23072.66937667  .00029708  00000-0  18746-2 0  9994","MEAN_MOTION":"15.08883915","TLE_LINE2":"2 53745  53.2152 126.5202 0001158  99.4774 260.6349 15.08883915 29736","MEAN_MOTION_DDOT":"0.0000000000000","CLASSIFICATION_TYPE":"U","EPOCH":"2023-03-13T16:03:54.144288","MEAN_MOTION_DOT":"0.00029708","ELEMENT_SET_NO":"999","EPHEMERIS_TYPE":"0","SITE":"AFETR","REF_FRAME":"TEME","SEMIMAJOR_AXIS":"6917.746","MEAN_ANOMALY":"260.6349","CENTER_NAME":"EARTH","ARG_OF_PERICENTER":"99.4774","RA_OF_ASC_NODE":"126.5202","MEAN_ELEMENT_THEORY":"SGP4","FILE":"3859631","INCLINATION":"53.2152","OBJECT_ID":"2022-107AX","DECAY_DATE":null,"TIME_SYSTEM":"UTC","REV_AT_EPOCH":"2973","ECCENTRICITY":"0.00011580","APOAPSIS":"540.412","RCS_SIZE":"LARGE","COUNTRY_CODE":"US","OBJECT_NAME":"STARLINK-4656","PERIOD":"95.435","OBJECT_TYPE":"PAYLOAD","LAUNCH_DATE":"2022-09-05"},{"DECAY_DATE":null,"OBJECT_ID":"2022-107AY","TIME_SYSTEM":"UTC","REV_AT_EPOCH":"2971","ECCENTRICITY":"0.00009310","APOAPSIS":"540.316","SITE":"AFETR","SEMIMAJOR_AXIS":"6917.807","MEAN_ANOMALY":"244.4329","REF_FRAME":"TEME","CENTER_NAME":"EARTH","RA_OF_ASC_NODE":"127.0605","ARG_OF_PERICENTER":"115.6759","MEAN_ELEMENT_THEORY":"SGP4","INCLINATION":"53.2169","FILE":"3859425","LAUNCH_DATE":"2022-09-05","RCS_SIZE":"LARGE","COUNTRY_CODE":"US","OBJECT_NAME":"STARLINK-4589","PERIOD":"95.436","OBJECT_TYPE":"PAYLOAD","PERIAPSIS":"539.028","TLE_LINE1":"1 53746U 22107AY  23072.52952884  .00016094  00000-0  10263-2 0  9998","MEAN_MOTION":"15.08864079","BSTAR":"0.00102630000000","GP_ID":"228005096","NORAD_CAT_ID":"53746","MEAN_MOTION_DOT":"0.00016094","ELEMENT_SET_NO":"999","EPHEMERIS_TYPE":"0","TLE_LINE2":"2 53746  53.2169 127.0605 0000931 115.6759 244.4329 15.08864079 29716","MEAN_MOTION_DDOT":"0.0000000000000","EPOCH":"2023-03-13T12:42:31.291776","CLASSIFICATION_TYPE":"U"},{"NORAD_CAT_ID":"53748","GP_ID":"227966306","BSTAR":"0.00122430000000","PERIAPSIS":"538.739","TLE_LINE1":"1 53748U 22107BA  23071.48075673  .00019253  00000-0  12243-2 0  9996","MEAN_MOTION":"15.08844520","TLE_LINE2":"2 53748  53.2171 131.8966 0001435  90.8093 269.3064 15.08844520 29552","CLASSIFICATION_TYPE":"U","EPOCH":"2023-03-12T11:32:17.381472","MEAN_MOTION_DDOT":"0.0000000000000","MEAN_MOTION_DOT":"0.00019253","ELEMENT_SET_NO":"999","EPHEMERIS_TYPE":"0","CENTER_NAME":"EARTH","ARG_OF_PERICENTER":"90.8093","RA_OF_ASC_NODE":"131.8966","MEAN_ELEMENT_THEORY":"SGP4","SITE":"AFETR","SEMIMAJOR_AXIS":"6917.867","REF_FRAME":"TEME","MEAN_ANOMALY":"269.3064","FILE":"3858743","INCLINATION":"53.2171","TIME_SYSTEM":"UTC","OBJECT_ID":"2022-107BA","DECAY_DATE":null,"APOAPSIS":"540.724","REV_AT_EPOCH":"2955","ECCENTRICITY":"0.00014350","PERIOD":"95.437","RCS_SIZE":"LARGE","COUNTRY_CODE":"US","OBJECT_NAME":"STARLINK-4669","OBJECT_TYPE":"PAYLOAD","LAUNCH_DATE":"2022-09-05"},{"TLE_LINE2":"2 53749  53.2163 127.4213 0001856  75.6025 284.5173 15.08849768 29709","MEAN_MOTION_DDOT":"0.0000000000000","EPOCH":"2023-03-13T11:28:21.863712","CLASSIFICATION_TYPE":"U","MEAN_MOTION_DOT":"0.00003264","ELEMENT_SET_NO":"999","EPHEMERIS_TYPE":"0","GP_ID":"228006089","BSTAR":"0.00022301000000","NORAD_CAT_ID":"53749","PERIAPSIS":"538.432","TLE_LINE1":"1 53749U 22107BB  23072.47803083  .00003264  00000-0  22301-3 0  9993","MEAN_MOTION":"15.08849768","RCS_SIZE":"LARGE","COUNTRY_CODE":"US","OBJECT_NAME":"STARLINK-4680","PERIOD":"95.437","OBJECT_TYPE":"PAYLOAD","LAUNCH_DATE":"2022-09-05","SITE":"AFETR","SEMIMAJOR_AXIS":"6917.851","MEAN_ANOMALY":"284.5173","REF_FRAME":"TEME","CENTER_NAME":"EARTH","ARG_OF_PERICENTER":"75.6025","RA_OF_ASC_NODE":"127.4213","MEAN_ELEMENT_THEORY":"SGP4","FILE":"3859425","INCLINATION":"53.2163","DECAY_DATE":null,"OBJECT_ID":"2022-107BB","TIME_SYSTEM":"UTC","REV_AT_EPOCH":"2970","ECCENTRICITY":"0.00018560","APOAPSIS":"540.999"},{"TLE_LINE1":"1 53750U 22107BC  23072.15052330  .00010227  00000-0  65956-3 0  9991","MEAN_MOTION":"15.08848696","PERIAPSIS":"538.732","NORAD_CAT_ID":"53750","BSTAR":"0.00065956000000","GP_ID":"228006344","EPHEMERIS_TYPE":"0","MEAN_MOTION_DOT":"0.00010227","ELEMENT_SET_NO":"999","CLASSIFICATION_TYPE":"U","EPOCH":"2023-03-13T03:36:45.213120","MEAN_MOTION_DDOT":"0.0000000000000","TLE_LINE2":"2 53750  53.2159 128.9694 0001427  80.4987 279.6166 15.08848696 29661","APOAPSIS":"540.706","REV_AT_EPOCH":"2966","ECCENTRICITY":"0.00014270","TIME_SYSTEM":"UTC","OBJECT_ID":"2022-107BC","DECAY_DATE":null,"INCLINATION":"53.2159","FILE":"3859425","CENTER_NAME":"EARTH","RA_OF_ASC_NODE":"128.9694","ARG_OF_PERICENTER":"80.4987","MEAN_ELEMENT_THEORY":"SGP4","SITE":"AFETR","SEMIMAJOR_AXIS":"6917.854","MEAN_ANOMALY":"279.6166","REF_FRAME":"TEME","LAUNCH_DATE":"2022-09-05","OBJECT_TYPE":"PAYLOAD","PERIOD":"95.437","COUNTRY_CODE":"US","RCS_SIZE":"LARGE","OBJECT_NAME":"STARLINK-4612"},{"NORAD_CAT_ID":"53773","BSTAR":"0.00045693000000","GP_ID":"228005348","PERIAPSIS":"538.240","TLE_LINE1":"1 53773U 22111A   23072.17072067  .00006993  00000-0  45693-3 0  9993","MEAN_MOTION":"15.08846054","TLE_LINE2":"2 53773  53.2165 148.5531 0002149 116.4199 243.7014 15.08846054 28915","EPOCH":"2023-03-13T04:05:50.265888","CLASSIFICATION_TYPE":"U","MEAN_MOTION_DDOT":"0.0000000000000","MEAN_MOTION_DOT":"0.00006993","ELEMENT_SET_NO":"999","EPHEMERIS_TYPE":"0","CENTER_NAME":"EARTH","RA_OF_ASC_NODE":"148.5531","ARG_OF_PERICENTER":"116.4199","MEAN_ELEMENT_THEORY":"SGP4","SITE":"AFETR","MEAN_ANOMALY":"243.7014","SEMIMAJOR_AXIS":"6917.862","REF_FRAME":"TEME","INCLINATION":"53.2165","FILE":"3859425","TIME_SYSTEM":"UTC","DECAY_DATE":null,"OBJECT_ID":"2022-111A","APOAPSIS":"541.214","REV_AT_EPOCH":"2891","ECCENTRICITY":"0.00021490","PERIOD":"95.437","RCS_SIZE":"LARGE","COUNTRY_CODE":"US","OBJECT_NAME":"STARLINK-4718","OBJECT_TYPE":"PAYLOAD","LAUNCH_DATE":"2022-09-11"},{"OBJECT_NAME":"STARLINK-4719","RCS_SIZE":"LARGE","COUNTRY_CODE":"US","PERIOD":"95.436","OBJECT_TYPE":"PAYLOAD","LAUNCH_DATE":"2022-09-11","SEMIMAJOR_AXIS":"6917.824","MEAN_ANOMALY":"243.9285","REF_FRAME":"TEME","SITE":"AFETR","ARG_OF_PERICENTER":"116.1853","RA_OF_ASC_NODE":"148.2317","MEAN_ELEMENT_THEORY":"SGP4","CENTER_NAME":"EARTH","INCLINATION":"53.2175","FILE":"3859548","DECAY_DATE":null,"OBJECT_ID":"2022-111B","TIME_SYSTEM":"UTC","ECCENTRICITY":"0.00014170","REV_AT_EPOCH":"2782","APOAPSIS":"540.669","TLE_LINE2":"2 53774  53.2175 148.2317 0001417 116.1853 243.9285 15.08858373 27825","MEAN_MOTION_DDOT":"0.0000000000000","EPOCH":"2023-03-13T05:35:55.147488","CLASSIFICATION_TYPE":"U","ELEMENT_SET_NO":"999","MEAN_MOTION_DOT":"0.00017266","EPHEMERIS_TYPE":"0","GP_ID":"228010370","BSTAR":"0.00109970000000","NORAD_CAT_ID":"53774","PERIAPSIS":"538.709","MEAN_MOTION":"15.08858373","TLE_LINE1":"1 53774U 22111B   23072.23327717  .00017266  00000-0  10997-2 0  9999"},{"TLE_LINE2":"2 53775  53.2160 138.1470 0002217 113.9253 246.1971 15.08839512 27973","MEAN_MOTION_DDOT":"0.0000000000000","CLASSIFICATION_TYPE":"U","EPOCH":"2023-03-13T07:55:04.130688","ELEMENT_SET_NO":"999","MEAN_MOTION_DOT":"0.00001509","EPHEMERIS_TYPE":"0","GP_ID":"228010373","BSTAR":"0.00011293000000","NORAD_CAT_ID":"53775","PERIAPSIS":"538.213","MEAN_MOTION":"15.08839512","TLE_LINE1":"1 53775U 22111C   23072.32990892  .00001509  00000-0  11293-3 0  9994","OBJECT_NAME":"STARLINK-4722","COUNTRY_CODE":"US","RCS_SIZE":"LARGE","PERIOD":"95.438","OBJECT_TYPE":"PAYLOAD","LAUNCH_DATE":"2022-09-11","MEAN_ANOMALY":"246.1971","SEMIMAJOR_AXIS":"6917.882","REF_FRAME":"TEME","SITE":"AFETR","MEAN_ELEMENT_THEORY":"SGP4","ARG_OF_PERICENTER":"113.9253","RA_OF_ASC_NODE":"138.1470","CENTER_NAME":"EARTH","INCLINATION":"53.2160","FILE":"3859548","OBJECT_ID":"2022-111C","DECAY_DATE":null,"TIME_SYSTEM":"UTC","ECCENTRICITY":"0.00022170","REV_AT_EPOCH":"2797","APOAPSIS":"541.281"},{"BSTAR":"0.00012361000000","GP_ID":"228005598","NORAD_CAT_ID":"53776","PERIAPSIS":"538.879","MEAN_MOTION":"15.08838710","TLE_LINE1":"1 53776U 22111D   23072.18775847  .00001680  00000-0  12361-3 0  9997","TLE_LINE2":"2 53776  53.2179 143.6721 0001258  87.2092 272.9044 15.08838710 28970","MEAN_MOTION_DDOT":"0.0000000000000","EPOCH":"2023-03-13T04:30:22.331808","CLASSIFICATION_TYPE":"U","ELEMENT_SET_NO":"999","MEAN_MOTION_DOT":"0.00001680","EPHEMERIS_TYPE":"0","REF_FRAME":"TEME","SEMIMAJOR_AXIS":"6917.884","MEAN_ANOMALY":"272.9044","SITE":"AFETR","ARG_OF_PERICENTER":"87.2092","RA_OF_ASC_NODE":"143.6721","MEAN_ELEMENT_THEORY":"SGP4","CENTER_NAME":"EARTH","INCLINATION":"53.2179","FILE":"3859425","DECAY_DATE":null,"OBJECT_ID":"2022-111D","TIME_SYSTEM":"UTC","ECCENTRICITY":"0.00012580","REV_AT_EPOCH":"2897","APOAPSIS":"540.620","OBJECT_NAME":"STARLINK-4708","COUNTRY_CODE":"US","RCS_SIZE":"LARGE","PERIOD":"95.438","OBJECT_TYPE":"PAYLOAD","LAUNCH_DATE":"2022-09-11"}];
